STARLINK-30376          
1 57782C 23134M   26086.45812500  .00069590  00000+0  25198-2 0   861
2 57782  43.0015  93.8835 0001321 272.3420 217.3155 15.27553248    14
STARLINK-30389          
1 57783C 23134N   26086.48451389  .00052694  00000+0  19581-2 0   865
2 57783  43.0027  96.9490 0001361 277.2936  79.2815 15.26710876    18
STARLINK-30388          
1 57784C 23134P   26086.52826389  .00034063  00000+0  12335-2 0   867
2 57784  43.0014  93.5343 0001324 272.0130 222.7425 15.27568136    16
STARLINK-30381          
1 57785C 23134Q   26086.49770833  .00063892  00000+0  23136-2 0   869
2 57785  43.0013  93.8470 0001427 267.7254 319.8483 15.27555249    15
STARLINK-30382          
1 57786C 23134R   26086.47270833  .00063115  00000+0  22859-2 0   862
2 57786  43.0012  93.7499 0001431 271.3686 319.9593 15.27549140    16
STARLINK-30378          
1 57787C 23134S   26086.43381944  .00027210  00000+0  98594-3 0   861
2 57787  43.0027  94.4367 0001277 276.5535 262.5820 15.27551312    13
STARLINK-30387          
1 57788C 23134T   26086.51576389 -.00047675  00000+0 -17700-2 0   868
2 57788  43.0012  82.3696 0001236 272.2557 207.4717 15.26790901    12
STARLINK-30372          
1 57789C 23134U   26086.52618056 -.00128140  00000+0 -46382-2 0   863
2 57789  43.0017 337.6469 0001728 262.2691 190.1597 15.27663563    14
STARLINK-30367          
1 57791C 23134W   26086.49493056  .00064376  00000+0  23325-2 0   863
2 57791  43.0015  93.9029 0001100 276.7552 316.6212 15.27535117    11
STARLINK-30374          
1 57809C 23138B   26086.51437500  .00019179  00000+0  69505-3 0   864
2 57809  43.0019 133.2395 0001324 278.5439 224.0237 15.27550477    16
STARLINK-30394          
1 57810C 23138C   26086.52895833  .00028594  00000+0  10362-2 0   861
2 57810  43.0010 133.3440 0001538 275.8005 229.2429 15.27548499    18
STARLINK-30379          
1 57811C 23138D   26086.51993056 -.00012826  00000+0 -46481-3 0   862
2 57811  43.0020 133.4464 0001104 268.1152 166.0017 15.27567379    13
STARLINK-30395          
1 57812C 23138E   26086.52409722 -.00002571  00000+0 -93176-4 0   866
2 57812  43.0025 133.4742 0001409 275.5485 160.2876 15.27565559    14
STARLINK-30403          
1 57813C 23138F   26086.52687500  .00056754  00000+0  20553-2 0   866
2 57813  43.0038 133.4917 0001468 261.7610 175.0858 15.27555282    11
STARLINK-30413          
1 57814C 23138G   26086.49840278  .00021837  00000+0  79123-3 0   868
2 57814  43.0005 134.0903 0001419 275.8124 180.4534 15.27555025    16
STARLINK-30398          
1 57815C 23138H   26086.42409722 -.00043742  00000+0 -15848-2 0   861
2 57815  43.0030 134.2224 0001374 267.4738 259.9421 15.27591269    18
STARLINK-30386          
1 57816C 23138J   26086.50743056  .00049571  00000+0  17954-2 0   866
2 57816  43.0026 133.8034 0001716 269.8070 335.1796 15.27555076    11
STARLINK-30391          
1 57817C 23138K   26086.50326389 -.00016884  00000+0 -61180-3 0   867
2 57817  43.0020 133.8757 0001427 277.1575 283.7085 15.27573021    18
STARLINK-30401          
1 57818C 23138L   26086.54076389  .00034772  00000+0  12600-2 0   860
2 57818  43.0019 133.6908 0001455 273.8195 119.3564 15.27547061    16
STARLINK-30390          
1 57819C 23138M   26086.53451389  .00057169  00000+0  21247-2 0   869
2 57819  43.0045 133.6431 0001449 269.9640 127.5350 15.26703363    13
STARLINK-30409          
1 57820C 23138N   26086.45881944  .00026545  00000+0  98568-3 0   861
2 57820  43.0012 133.5297 0001099 265.0879 292.1803 15.26748611    17
STARLINK-30415          
1 57821C 23138P   26086.43451389  .00013961  00000+0  51875-3 0   864
2 57821  43.0004 134.3686 0001315 267.0519 229.7809 15.26731424    10
STARLINK-30407          
1 57823C 23138R   26086.54631944 -.00009872  00000+0 -35765-3 0   863
2 57823  43.0010  27.9379 0001660 265.5726 234.2869 15.27574318    16
STARLINK-30408          
1 57824C 23138S   26086.54076389  .00060117  00000+0  22329-2 0   868
2 57824  43.0011 133.0149 0001358 274.1810  44.3811 15.26722474    10
STARLINK-30377          
1 57825C 23138T   26086.55881944  .00065368  00000+0  23665-2 0   868
2 57825  43.0013 133.0185 0001402 274.4422  98.6593 15.27562013    16
STARLINK-30422          
1 57826C 23138U   26086.45673611 -.00048822  00000+0 -18146-2 0   864
2 57826  43.0013 133.7998 0001287 273.5056 169.9130 15.26753397    15
STARLINK-30402          
1 57827C 23138V   26086.45465278  .00019798  00000+0  71695-3 0   860
2 57827  43.0014 133.7745 0001349 268.5474 180.2951 15.27574214    11
STARLINK-30411          
1 57828C 23138W   26086.48104167  .00035574  00000+0  12883-2 0   864
2 57828  43.0013 133.5523 0001368 269.2546 346.1199 15.27564984    12
STARLINK-30418          
1 57829C 23138X   26086.50118056  .00041187  00000+0  15299-2 0   861
2 57829  43.0015 133.3683 0001346 273.1899 130.9698 15.26728719    11
STARLINK-30285          
1 57840C 23141A   26086.47201389 -.00003872  00000+0 -13053-3 0   864
2 57840  53.1586 201.5441 0001223  95.8630 140.6327 15.30185843    12
STARLINK-30410          
1 57841C 23141B   26086.45048611 -.00002702  00000+0 -91098-4 0   867
2 57841  53.1586 201.5946 0001399  89.3038 318.9085 15.30175806    16
STARLINK-30435          
1 57842C 23141C   26086.46854167 -.00018871  00000+0 -63619-3 0   861
2 57842  53.1587 201.5729 0001156  96.5685  33.6827 15.30192215    14
STARLINK-30423          
1 57843C 23141D   26086.53451389  .00002935  00000+0  98960-4 0   869
2 57843  53.1583 201.2686 0001373  78.7944  31.8544 15.30178784    12
STARLINK-30292          
1 57844C 23141E   26086.44770833 -.00000732  00000+0 -24685-4 0   866
2 57844  53.1578 201.2570 0001438  87.8686 224.0378 15.30187905    11
STARLINK-30416          
1 57847C 23141H   26086.45743056 -.00012134  00000+0 -40896-3 0   867
2 57847  53.1588 201.6483 0001269  95.6064  25.6271 15.30197033    11
STARLINK-30426          
1 57848C 23141J   26086.52756944 -.00004474  00000+0 -15082-3 0   863
2 57848  53.1579 201.3006 0001431  83.6718 331.2725 15.30188134    16
STARLINK-30430          
1 57849C 23141K   26086.54979167  .00009749  00000+0  32875-3 0   867
2 57849  53.1587 201.2266 0001189  83.1246 204.6052 15.30170084    15
STARLINK-30425          
1 57850C 23141L   26086.43937500  .00006674  00000+0  22506-3 0   866
2 57850  53.1579 201.7511 0001444  87.1553 184.2429 15.30171126    14
STARLINK-30405          
1 57851C 23141M   26086.45604167 -.00006064  00000+0 -20469-3 0   860
2 57851  53.1589 201.6753 0001001  77.1787  18.9817 15.30145866    16
STARLINK-30431          
1 57852C 23141N   26086.44423611  .00177850  00000+0  59865-2 0   864
2 57852  53.1576 201.3247 0001208  76.2333 187.3929 15.30143346    10
STARLINK-30404          
1 57853C 23141P   26086.52548611  .00002792  00000+0  94178-4 0   862
2 57853  53.1578 200.9012 0001356  84.9491 289.8677 15.30167027    13
STARLINK-30412          
1 57854C 23141Q   26086.48729167 -.00062681  00000+0 -21124-2 0   869
2 57854  53.1574 201.1927 0001272  80.6465  25.4755 15.30225892    15
STARLINK-30392          
1 57855C 23141R   26086.46159722 -.00003241  00000+0 -10924-3 0   866
2 57855  53.1576 201.2764 0001564  80.3665 261.5802 15.30186399    15
STARLINK-30291          
1 57856C 23141S   26086.43520833 -.00000986  00000+0 -33252-4 0   862
2 57856  53.1578 201.6524 0001093  86.7855 341.7422 15.30185176    15
STARLINK-30424          
1 57857C 23141T   26086.49701389  .00005166  00000+0  17415-3 0   861
2 57857  53.1581 175.4098 0001124  69.6871 334.3014 15.30184294    12
STARLINK-30290          
1 57858C 23141U   26086.47409722 -.00001052  00000+0 -35451-4 0   869
2 57858  53.1571 201.3226 0001417  75.9171 282.5701 15.30180172    10
STARLINK-30414          
1 57859C 23141V   26086.55326389  .00007010  00000+0  23631-3 0   860
2 57859  53.1571 200.9199 0001494  74.8195  17.4650 15.30178967    11
STARLINK-30272          
1 57860C 23141W   26086.54284722  .00083461  00000+0  28171-2 0   862
2 57860  53.1579 201.1858 0000849  82.5716 201.7519 15.30102327    13
STARLINK-30432          
1 57864C 23144A   26086.51645833 -.00157750  00000+0 -57100-2 0   869
2 57864  43.0011 184.3785 0001341 273.5383 155.1339 15.27678609    16
STARLINK-30427          
1 57865C 23144B   26086.51090278 -.00102430  00000+0 -37107-2 0   867
2 57865  43.0010 184.4535 0001162 270.0573 106.8882 15.27624250    13
STARLINK-30393          
1 57866C 23144C   26086.45743056 -.00100180  00000+0 -36274-2 0   864
2 57866  43.0005 184.6050 0001292 266.4304 239.7439 15.27639789    14
STARLINK-30439          
1 57867C 23144D   26086.52201389  .00073169  00000+0  26469-2 0   860
2 57867  43.0005 184.4455 0001481 277.1694 139.6824 15.27583372    15
STARLINK-30442          
1 57868C 23144E   26086.47548611 -.00111140  00000+0 -40245-2 0   869
2 57868  43.0016 184.7173 0001336 264.6533 234.8865 15.27641384    11
STARLINK-30441          
1 57869C 23144F   26086.47409722 -.00100200  00000+0 -36287-2 0   865
2 57869  43.0010 184.5193 0001095 270.4488 306.3278 15.27632409    13
STARLINK-30460          
1 57870C 23144G   26086.45743056 -.00071913  00000+0 -26046-2 0   866
2 57870  43.0022 184.8949 0001170 271.2960 114.6360 15.27616206    17
STARLINK-30444          
1 57871C 23144H   26086.43798611  .00006368  00000+0  23071-3 0   868
2 57871  43.0027 185.1073 0001563 272.1253 324.1942 15.27564775    13
STARLINK-30446          
1 57872C 23144J   26086.44076389  .00004852  00000+0  17576-3 0   860
2 57872  43.0020 170.8251 0001383 258.3179 258.4308 15.27572977    17
STARLINK-30445          
1 57873C 23144K   26086.53312500  .00043074  00000+0  15608-2 0   861
2 57873  43.0024 184.5227 0001358 263.0507 158.2935 15.27542431    12
STARLINK-30447          
1 57874C 23144L   26086.48243056 -.00044625  00000+0 -16168-2 0   862
2 57874  43.0006 158.9698 0001222 276.3603 103.0038 15.27589971    16
